[{"OBJECT_NAME":"STARLINK-4568","OBJECT_ID":"2022-104AL","EPOCH":"2026-03-09T17:01:47.002656","MEAN_MOTION":15.08857708,"ECCENTRICITY":0.00017847,"INCLINATION":53.2167,"RA_OF_ASC_NODE":233.6367,"ARG_OF_PERICENTER":62.4392,"MEAN_ANOMALY":297.6781,"EPHEMERIS_TYPE":0,"CLASSIFICATION_TYPE":"U","NORAD_CAT_ID":53622,"ELEMENT_SET_NO":999,"REV_AT_EPOCH":19575,"BSTAR":0.00018113246,"MEAN_MOTION_DOT":2.597e-5,"MEAN_MOTION_DDOT":0},{"OBJECT_NAME":"THOR AGENA B DEB","OBJECT_ID":"1965-098H","EPOCH":"2026-03-09T01:21:31.298400","MEAN_MOTION":12.34933034,"ECCENTRICITY":0.12961634,"INCLINATION":79.8598,"RA_OF_ASC_NODE":86.4043,"ARG_OF_PERICENTER":312.226,"MEAN_ANOMALY":37.5642,"EPHEMERIS_TYPE":0,"CLASSIFICATION_TYPE":"U","NORAD_CAT_ID":2092,"ELEMENT_SET_NO":999,"REV_AT_EPOCH":66806,"BSTAR":0.00061860386,"MEAN_MOTION_DOT":1.873e-5,"MEAN_MOTION_DDOT":0}]
